{
  "type": "FeatureCollection",
  "features": [
    {
      "type": "Feature",
      "properties": {
        "norad_id": 40730,
        "name": "GPS BIIF-10 (PRN 08)",
        "group": "gps-ops",
        "lat": -48.00690127286892,
        "lon": -138.5850982086405,
        "alt_km": 20200.56454709904,
        "timestamp": "2025-12-11T15:53:39.801314+00:00",
        "meta_object_name": "GPS BIIF-10 (PRN 08)",
        "meta_object_id": "2015-033A",
        "meta_epoch": "2025-12-10T18:08:59.885952",
        "meta_mean_motion": 2.00565667,
        "meta_eccentricity": 0.01108361,
        "meta_inclination": 54.1324,
        "meta_ra_of_asc_node": 274.8545,
        "meta_arg_of_pericenter": 26.7633,
        "meta_mean_anomaly": 333.8214,
        "meta_ephemeris_type": 0,
        "meta_classification_type": "U",
        "meta_norad_cat_id": 40730,
        "meta_element_set_no": 999,
        "meta_rev_at_epoch": 7621,
        "meta_bstar": 0,
        "meta_mean_motion_dot": -6.3e-07,
        "meta_mean_motion_ddot": 0,
        "tle_line1": "1 40730U 15033A   25344.75624868 -.00000063  00000+0  00000+0 0  9998",
        "tle_line2": "2 40730  54.1324 274.8545 0110836  26.7633 333.8214  2.00565667 76213"
      },
      "geometry": {
        "type": "Point",
        "coordinates": [
          -138.5850982086405,
          -48.00690127286892
        ]
      }
    },
    {
      "type": "Feature",
      "properties": {
        "norad_id": 41019,
        "name": "GPS BIIF-11 (PRN 10)",
        "group": "gps-ops",
        "lat": -52.25232944513287,
        "lon": -84.3697439417629,
        "alt_km": 19911.986154597107,
        "timestamp": "2025-12-11T15:53:39.801325+00:00",
        "meta_object_name": "GPS BIIF-11 (PRN 10)",
        "meta_object_id": "2015-062A",
        "meta_epoch": "2025-12-10T07:36:33.024096",
        "meta_mean_motion": 2.00567034,
        "meta_eccentricity": 0.01107574,
        "meta_inclination": 56.8304,
        "meta_ra_of_asc_node": 38.096,
        "meta_arg_of_pericenter": 229.8791,
        "meta_mean_anomaly": 129.1964,
        "meta_ephemeris_type": 0,
        "meta_classification_type": "U",
        "meta_norad_cat_id": 41019,
        "meta_element_set_no": 999,
        "meta_rev_at_epoch": 7404,
        "meta_bstar": 0,
        "meta_mean_motion_dot": -8.8e-07,
        "meta_mean_motion_ddot": 0,
        "tle_line1": "1 41019U 15062A   25344.31704889 -.00000088  00000+0  00000+0 0  9992",
        "tle_line2": "2 41019  56.8304  38.0960 0110757 229.8791 129.1964  2.00567034 74042"
      },
      "geometry": {
        "type": "Point",
        "coordinates": [
          -84.3697439417629,
          -52.25232944513287
        ]
      }
    },
    {
      "type": "Feature",
      "properties": {
        "norad_id": 41328,
        "name": "GPS BIIF-12 (PRN 32)",
        "group": "gps-ops",
        "lat": -8.240167437798807,
        "lon": -77.3759727991432,
        "alt_km": 20037.027696006822,
        "timestamp": "2025-12-11T15:53:39.801336+00:00",
        "meta_object_name": "GPS BIIF-12 (PRN 32)",
        "meta_object_id": "2016-007A",
        "meta_epoch": "2025-12-10T09:35:17.707200",
        "meta_mean_motion": 2.005608,
        "meta_eccentricity": 0.00920502,
        "meta_inclination": 55.4049,
        "meta_ra_of_asc_node": 96.9499,
        "meta_arg_of_pericenter": 243.5192,
        "meta_mean_anomaly": 115.5235,
        "meta_ephemeris_type": 0,
        "meta_classification_type": "U",
        "meta_norad_cat_id": 41328,
        "meta_element_set_no": 999,
        "meta_rev_at_epoch": 7205,
        "meta_bstar": 0,
        "meta_mean_motion_dot": 3e-08,
        "meta_mean_motion_ddot": 0,
        "tle_line1": "1 41328U 16007A   25344.39951050  .00000003  00000+0  00000+0 0  9993",
        "tle_line2": "2 41328  55.4049  96.9499 0092050 243.5192 115.5235  2.00560800 72052"
      },
      "geometry": {
        "type": "Point",
        "coordinates": [
          -77.3759727991432,
          -8.240167437798807
        ]
      }
    },
    {
      "type": "Feature",
      "properties": {
        "norad_id": 43873,
        "name": "GPS BIII-1  (PRN 04)",
        "group": "gps-ops",
        "lat": 55.2721635235722,
        "lon": -179.04346153865555,
        "alt_km": 20209.726134304856,
        "timestamp": "2025-12-11T15:53:39.801348+00:00",
        "meta_object_name": "GPS BIII-1  (PRN 04)",
        "meta_object_id": "2018-109A",
        "meta_epoch": "2025-12-10T13:28:44.931360",
        "meta_mean_motion": 2.00553503,
        "meta_eccentricity": 0.00372579,
        "meta_inclination": 55.5664,
        "meta_ra_of_asc_node": 99.6325,
        "meta_arg_of_pericenter": 194.8351,
        "meta_mean_anomaly": 175.9534,
        "meta_ephemeris_type": 0,
        "meta_classification_type": "U",
        "meta_norad_cat_id": 43873,
        "meta_element_set_no": 999,
        "meta_rev_at_epoch": 5129,
        "meta_bstar": 0,
        "meta_mean_motion_dot": 8e-08,
        "meta_mean_motion_ddot": 0,
        "tle_line1": "1 43873U 18109A   25344.56163115  .00000008  00000+0  00000+0 0  9996",
        "tle_line2": "2 43873  55.5664  99.6325 0037257 194.8351 175.9534  2.00553503 51291"
      },
      "geometry": {
        "type": "Point",
        "coordinates": [
          -179.04346153865555,
          55.2721635235722
        ]
      }
    },
    {
      "type": "Feature",
      "properties": {
        "norad_id": 44506,
        "name": "GPS BIII-2  (PRN 18)",
        "group": "gps-ops",
        "lat": -14.169941800879302,
        "lon": -31.325223778629677,
        "alt_km": 20308.061461129222,
        "timestamp": "2025-12-11T15:53:39.801360+00:00",
        "meta_object_name": "GPS BIII-2  (PRN 18)",
        "meta_object_id": "2019-056A",
        "meta_epoch": "2025-12-10T22:36:31.473216",
        "meta_mean_motion": 2.00566186,
        "meta_eccentricity": 0.00577553,
        "meta_inclination": 55.722,
        "meta_ra_of_asc_node": 338.6233,
        "meta_arg_of_pericenter": 198.4895,
        "meta_mean_anomaly": 343.848,
        "meta_ephemeris_type": 0,
        "meta_classification_type": "U",
        "meta_norad_cat_id": 44506,
        "meta_element_set_no": 999,
        "meta_rev_at_epoch": 4629,
        "meta_bstar": 0,
        "meta_mean_motion_dot": -8.7e-07,
        "meta_mean_motion_ddot": 0,
        "tle_line1": "1 44506U 19056A   25344.94203094 -.00000087  00000+0  00000+0 0  9993",
        "tle_line2": "2 44506  55.7220 338.6233 0057755 198.4895 343.8480  2.00566186 46298"
      },
      "geometry": {
        "type": "Point",
        "coordinates": [
          -31.325223778629677,
          -14.169941800879302
        ]
      }
    },
    {
      "type": "Feature",
      "properties": {
        "norad_id": 45854,
        "name": "GPS BIII-3  (PRN 23)",
        "group": "gps-ops",
        "lat": -52.874939285461245,
        "lon": -24.533782283860145,
        "alt_km": 20169.51909851542,
        "timestamp": "2025-12-11T15:53:39.801371+00:00",
        "meta_object_name": "GPS BIII-3  (PRN 23)",
        "meta_object_id": "2020-041A",
        "meta_epoch": "2025-12-10T06:22:51.669120",
        "meta_mean_motion": 2.00561869,
        "meta_eccentricity": 0.0060434,
        "meta_inclination": 56.5455,
        "meta_ra_of_asc_node": 36.2815,
        "meta_arg_of_pericenter": 203.3429,
        "meta_mean_anomaly": 154.8897,
        "meta_ephemeris_type": 0,
        "meta_classification_type": "U",
        "meta_norad_cat_id": 45854,
        "meta_element_set_no": 999,
        "meta_rev_at_epoch": 4024,
        "meta_bstar": 0,
        "meta_mean_motion_dot": -9e-07,
        "meta_mean_motion_ddot": 0,
        "tle_line1": "1 45854U 20041A   25344.26587580 -.00000090  00000+0  00000+0 0  9990",
        "tle_line2": "2 45854  56.5455  36.2815 0060434 203.3429 154.8897  2.00561869 40242"
      },
      "geometry": {
        "type": "Point",
        "coordinates": [
          -24.533782283860145,
          -52.874939285461245
        ]
      }
    },
    {
      "type": "Feature",
      "properties": {
        "norad_id": 46826,
        "name": "GPS BIII-4  (PRN 14)",
        "group": "gps-ops",
        "lat": -52.321440411134546,
        "lon": 108.48755426676657,
        "alt_km": 20087.306038589802,
        "timestamp": "2025-12-11T15:53:39.801382+00:00",
        "meta_object_name": "GPS BIII-4  (PRN 14)",
        "meta_object_id": "2020-078A",
        "meta_epoch": "2025-12-11T01:02:32.222400",
        "meta_mean_motion": 2.00566809,
        "meta_eccentricity": 0.00646068,
        "meta_inclination": 54.0154,
        "meta_ra_of_asc_node": 218.4098,
        "meta_arg_of_pericenter": 203.3332,
        "meta_mean_anomaly": 327.254,
        "meta_ephemeris_type": 0,
        "meta_classification_type": "U",
        "meta_norad_cat_id": 46826,
        "meta_element_set_no": 999,
        "meta_rev_at_epoch": 3773,
        "meta_bstar": 0,
        "meta_mean_motion_dot": 8e-08,
        "meta_mean_motion_ddot": 0,
        "tle_line1": "1 46826U 20078A   25345.04342850  .00000008  00000+0  00000+0 0  9994",
        "tle_line2": "2 46826  54.0154 218.4098 0064606 203.3332 327.2540  2.00566809 37736"
      },
      "geometry": {
        "type": "Point",
        "coordinates": [
          108.48755426676657,
          -52.321440411134546
        ]
      }
    }
  ]
}